start=new Date('2021-11-23T00:00:00.000Z').valueOf();
sats=[{"RCS_SIZE":"LARGE","OBJECT_NAME":"STARLINK-1733","ARG_OF_PERICENTER":"55.0224","FILE":"3221278","OBJECT_TYPE":"PAYLOAD","TLE_LINE1":"1 46564U 20070AJ  21326.35159978 -.00000126  00000-0  10474-4 0  9995","REV_AT_EPOCH":"6340","PERIOD":"95.592","PERIAPSIS":"546.103","ELEMENT_SET_NO":"999","MEAN_ELEMENT_THEORY":"SGP4","SITE":"AFETR","NORAD_CAT_ID":"46564","CLASSIFICATION_TYPE":"U","SEMIMAJOR_AXIS":"6925.364","RA_OF_ASC_NODE":"357.1694","DECAY_DATE":null,"LAUNCH_DATE":"2020-10-06","BSTAR":"0.00001047400000","TLE_LINE2":"2 46564  53.0564 357.1694 0001626  55.0224 305.0918 15.06395052 63403","MEAN_MOTION":"15.06395052","APOAPSIS":"548.355","MEAN_MOTION_DDOT":"0.0000000000000","INCLINATION":"53.0564","EPOCH":"2021-11-22T08:26:18.220992","CENTER_NAME":"EARTH","TIME_SYSTEM":"UTC","OBJECT_ID":"2020-070AJ","COUNTRY_CODE":"US","EPHEMERIS_TYPE":"0","GP_ID":"190264229","MEAN_MOTION_DOT":"-0.00000126","REF_FRAME":"TEME","MEAN_ANOMALY":"305.0918","ECCENTRICITY":"0.00016260"},{"OBJECT_ID":"2020-070AK","COUNTRY_CODE":"US","EPHEMERIS_TYPE":"0","CENTER_NAME":"EARTH","TIME_SYSTEM":"UTC","ECCENTRICITY":"0.00013890","MEAN_MOTION_DOT":"0.00001317","GP_ID":"190264480","MEAN_ANOMALY":"292.4223","REF_FRAME":"TEME","DECAY_DATE":null,"LAUNCH_DATE":"2020-10-06","BSTAR":"0.00010726000000","TLE_LINE2":"2 46565  53.0661 358.0969 0001389  67.6913 292.4223 15.06405363 63367","INCLINATION":"53.0661","EPOCH":"2021-11-22T03:07:49.627200","MEAN_MOTION":"15.06405363","APOAPSIS":"548.159","MEAN_MOTION_DDOT":"0.0000000000000","NORAD_CAT_ID":"46565","CLASSIFICATION_TYPE":"U","ELEMENT_SET_NO":"999","PERIAPSIS":"546.235","MEAN_ELEMENT_THEORY":"SGP4","SITE":"AFETR","RA_OF_ASC_NODE":"358.0969","SEMIMAJOR_AXIS":"6925.332","RCS_SIZE":"LARGE","ARG_OF_PERICENTER":"67.6913","OBJECT_NAME":"STARLINK-1735","TLE_LINE1":"1 46565U 20070AK  21326.13043550  .00001317  00000-0  10726-3 0  9991","REV_AT_EPOCH":"6336","PERIOD":"95.592","FILE":"3221278","OBJECT_TYPE":"PAYLOAD"},{"PERIOD":"95.592","TLE_LINE1":"1 46566U 20070AL  21326.38108776  .00004572  00000-0  32553-3 0  9999","REV_AT_EPOCH":"6340","OBJECT_TYPE":"PAYLOAD","FILE":"3221278","OBJECT_NAME":"STARLINK-1740","ARG_OF_PERICENTER":"63.1759","RCS_SIZE":"LARGE","SEMIMAJOR_AXIS":"6925.321","RA_OF_ASC_NODE":"357.0425","CLASSIFICATION_TYPE":"U","NORAD_CAT_ID":"46566","SITE":"AFETR","PERIAPSIS":"546.137","ELEMENT_SET_NO":"999","MEAN_ELEMENT_THEORY":"SGP4","EPOCH":"2021-11-22T09:08:45.982464","INCLINATION":"53.0532","APOAPSIS":"548.234","MEAN_MOTION_DDOT":"0.0000000000000","MEAN_MOTION":"15.06409002","TLE_LINE2":"2 46566  53.0532 357.0425 0001514  63.1759 296.9385 15.06409002 63407","DECAY_DATE":null,"BSTAR":"0.00032553000000","LAUNCH_DATE":"2020-10-06","ECCENTRICITY":"0.00015140","MEAN_ANOMALY":"296.9385","REF_FRAME":"TEME","GP_ID":"190264723","MEAN_MOTION_DOT":"0.00004572","COUNTRY_CODE":"US","EPHEMERIS_TYPE":"0","OBJECT_ID":"2020-070AL","TIME_SYSTEM":"UTC","CENTER_NAME":"EARTH"},{"ARG_OF_PERICENTER":"62.5758","OBJECT_NAME":"STARLINK-1741","RCS_SIZE":"LARGE","OBJECT_TYPE":"PAYLOAD","FILE":"3220934","PERIOD":"95.592","REV_AT_EPOCH":"6332","TLE_LINE1":"1 46567U 20070AM  21325.81345957  .00003181  00000-0  23236-3 0  9994","SITE":"AFETR","ELEMENT_SET_NO":"999","PERIAPSIS":"546.273","MEAN_ELEMENT_THEORY":"SGP4","CLASSIFICATION_TYPE":"U","NORAD_CAT_ID":"46567","SEMIMAJOR_AXIS":"6925.345","RA_OF_ASC_NODE":"359.5912","TLE_LINE2":"2 46567  53.0553 359.5912 0001353  62.5758 297.5368 15.06401250 63328","DECAY_DATE":null,"LAUNCH_DATE":"2020-10-06","BSTAR":"0.00023236000000","APOAPSIS":"548.147","MEAN_MOTION_DDOT":"0.0000000000000","MEAN_MOTION":"15.06401250","EPOCH":"2021-11-21T19:31:22.906848","INCLINATION":"53.0553","TIME_SYSTEM":"UTC","CENTER_NAME":"EARTH","COUNTRY_CODE":"US","EPHEMERIS_TYPE":"0","OBJECT_ID":"2020-070AM","REF_FRAME":"TEME","MEAN_ANOMALY":"297.5368","GP_ID":"190233142","MEAN_MOTION_DOT":"0.00003181","ECCENTRICITY":"0.00013530"},{"DECAY_DATE":null,"LAUNCH_DATE":"2020-10-06","BSTAR":"0.00101640000000","TLE_LINE2":"2 46568  53.0537 356.4440 0008300 321.8559  38.1857 15.43065194 63418","INCLINATION":"53.0537","EPOCH":"2021-11-22T09:04:22.447776","MEAN_MOTION":"15.43065194","APOAPSIS":"442.728","MEAN_MOTION_DDOT":"0.0000000000000","OBJECT_ID":"2020-070AN","COUNTRY_CODE":"US","EPHEMERIS_TYPE":"0","CENTER_NAME":"EARTH","TIME_SYSTEM":"UTC","ECCENTRICITY":"0.00083000","MEAN_MOTION_DOT":"0.00045500","GP_ID":"190263729","REF_FRAME":"TEME","MEAN_ANOMALY":"38.1857","RCS_SIZE":"LARGE","OBJECT_NAME":"STARLINK-1743","ARG_OF_PERICENTER":"321.8559","REV_AT_EPOCH":"6341","TLE_LINE1":"1 46568U 20070AN  21326.37803759  .00045500  00000-0  10164-2 0  9992","PERIOD":"93.321","FILE":"3221278","OBJECT_TYPE":"PAYLOAD","NORAD_CAT_ID":"46568","CLASSIFICATION_TYPE":"U","ELEMENT_SET_NO":"999","PERIAPSIS":"431.414","MEAN_ELEMENT_THEORY":"SGP4","SITE":"AFETR","SEMIMAJOR_AXIS":"6815.206","RA_OF_ASC_NODE":"356.4440"},{"MEAN_MOTION":"15.06405573","APOAPSIS":"548.117","MEAN_MOTION_DDOT":"0.0000000000000","INCLINATION":"53.0546","EPOCH":"2021-11-22T13:23:32.118432","DECAY_DATE":null,"LAUNCH_DATE":"2020-10-06","BSTAR":"0.00014904000000","TLE_LINE2":"2 46569  53.0546 356.2329 0001329  66.2259 293.8869 15.06405573 63134","GP_ID":"190272952","MEAN_MOTION_DOT":"0.00001940","REF_FRAME":"TEME","MEAN_ANOMALY":"293.8869","ECCENTRICITY":"0.00013290","CENTER_NAME":"EARTH","TIME_SYSTEM":"UTC","OBJECT_ID":"2020-070AP","COUNTRY_CODE":"US","EPHEMERIS_TYPE":"0","FILE":"3221615","OBJECT_TYPE":"PAYLOAD","TLE_LINE1":"1 46569U 20070AP  21326.55801063  .00001940  00000-0  14904-3 0  9996","REV_AT_EPOCH":"6313","PERIOD":"95.592","RCS_SIZE":"LARGE","OBJECT_NAME":"STARLINK-1747","ARG_OF_PERICENTER":"66.2259","RA_OF_ASC_NODE":"356.2329","SEMIMAJOR_AXIS":"6925.331","PERIAPSIS":"546.276","ELEMENT_SET_NO":"999","MEAN_ELEMENT_THEORY":"SGP4","SITE":"AFETR","NORAD_CAT_ID":"46569","CLASSIFICATION_TYPE":"U"},{"LAUNCH_DATE":"2020-10-06","BSTAR":"0.00014388000000","DECAY_DATE":null,"TLE_LINE2":"2 46570  53.0557 356.6366 0001532  58.1270 301.9868 15.06402010 63416","MEAN_MOTION":"15.06402010","MEAN_MOTION_DDOT":"0.0000000000000","APOAPSIS":"548.268","INCLINATION":"53.0557","EPOCH":"2021-11-22T11:10:50.279808","CENTER_NAME":"EARTH","TIME_SYSTEM":"UTC","OBJECT_ID":"2020-070AQ","EPHEMERIS_TYPE":"0","COUNTRY_CODE":"US","GP_ID":"190265224","MEAN_MOTION_DOT":"0.00001862","REF_FRAME":"TEME","MEAN_ANOMALY":"301.9868","ECCENTRICITY":"0.00015320","RCS_SIZE":"LARGE","ARG_OF_PERICENTER":"58.1270","OBJECT_NAME":"STARLINK-1748","FILE":"3221278","OBJECT_TYPE":"PAYLOAD","TLE_LINE1":"1 46570U 20070AQ  21326.46585972  .00001862  00000-0  14388-3 0  9995","REV_AT_EPOCH":"6341","PERIOD":"95.592","MEAN_ELEMENT_THEORY":"SGP4","PERIAPSIS":"546.146","ELEMENT_SET_NO":"999","SITE":"AFETR","NORAD_CAT_ID":"46570","CLASSIFICATION_TYPE":"U","SEMIMAJOR_AXIS":"6925.342","RA_OF_ASC_NODE":"356.6366"},{"APOAPSIS":"529.898","MEAN_MOTION_DDOT":"0.0000000000000","MEAN_MOTION":"15.12555025","EPOCH":"2021-11-22T14:48:13.949568","INCLINATION":"53.0546","TLE_LINE2":"2 46571  53.0546 355.8536 0002150  76.7624 283.3608 15.12555025 63441","DECAY_DATE":null,"LAUNCH_DATE":"2020-10-06","BSTAR":"0.01650200000000","REF_FRAME":"TEME","MEAN_ANOMALY":"283.3608","GP_ID":"190272951","MEAN_MOTION_DOT":"0.00303432","ECCENTRICITY":"0.00021500","TIME_SYSTEM":"UTC","CENTER_NAME":"EARTH","COUNTRY_CODE":"US","EPHEMERIS_TYPE":"0","OBJECT_ID":"2020-070AR","OBJECT_TYPE":"PAYLOAD","FILE":"3221615","PERIOD":"95.203","TLE_LINE1":"1 46571U 20070AR  21326.61682812  .00303432  00000-0  16502-1 0  9990","REV_AT_EPOCH":"6344","OBJECT_NAME":"STARLINK-1753","ARG_OF_PERICENTER":"76.7624","RCS_SIZE":"LARGE","SEMIMAJOR_AXIS":"6906.548","RA_OF_ASC_NODE":"355.8536","SITE":"AFETR","PERIAPSIS":"526.928","ELEMENT_SET_NO":"999","MEAN_ELEMENT_THEORY":"SGP4","CLASSIFICATION_TYPE":"U","NORAD_CAT_ID":"46571"},{"SITE":"AFETR","MEAN_ELEMENT_THEORY":"SGP4","ELEMENT_SET_NO":"999","PERIAPSIS":"546.384","CLASSIFICATION_TYPE":"U","NORAD_CAT_ID":"46572","SEMIMAJOR_AXIS":"6925.363","RA_OF_ASC_NODE":"14.8783","OBJECT_NAME":"STARLINK-1531","ARG_OF_PERICENTER":"66.7670","RCS_SIZE":"LARGE","OBJECT_TYPE":"PAYLOAD","FILE":"3221611","PERIOD":"95.592","TLE_LINE1":"1 46572U 20070AS  21326.86210376 -.00001371  00000-0 -73150-4 0  9994","REV_AT_EPOCH":"6321","TIME_SYSTEM":"UTC","CENTER_NAME":"EARTH","EPHEMERIS_TYPE":"0","COUNTRY_CODE":"US","OBJECT_ID":"2020-070AS","MEAN_ANOMALY":"293.3448","REF_FRAME":"TEME","MEAN_MOTION_DOT":"-0.00001371","GP_ID":"190272727","ECCENTRICITY":"0.00012190","TLE_LINE2":"2 46572  53.0553  14.8783 0001219  66.7670 293.3448 15.06395354 63219","LAUNCH_DATE":"2020-10-06","BSTAR":"-0.00007315000000","DECAY_DATE":null,"MEAN_MOTION_DDOT":"0.0000000000000","APOAPSIS":"548.072","MEAN_MOTION":"15.06395354","EPOCH":"2021-11-22T20:41:25.764864","INCLINATION":"53.0553"},{"CENTER_NAME":"EARTH","TIME_SYSTEM":"UTC","OBJECT_ID":"2020-070AT","COUNTRY_CODE":"US","EPHEMERIS_TYPE":"0","MEAN_MOTION_DOT":"0.00002308","GP_ID":"190264481","REF_FRAME":"TEME","MEAN_ANOMALY":"293.2308","ECCENTRICITY":"0.00014300","DECAY_DATE":null,"LAUNCH_DATE":"2020-10-06","BSTAR":"0.00017376000000","TLE_LINE2":"2 46573  53.0556   2.0529 0001430  66.8831 293.2308 15.06404767 63331","MEAN_MOTION":"15.06404767","APOAPSIS":"548.189","MEAN_MOTION_DDOT":"0.0000000000000","INCLINATION":"53.0556","EPOCH":"2021-11-22T09:00:08.650368","PERIAPSIS":"546.209","ELEMENT_SET_NO":"999","MEAN_ELEMENT_THEORY":"SGP4","SITE":"AFETR","NORAD_CAT_ID":"46573","CLASSIFICATION_TYPE":"U","SEMIMAJOR_AXIS":"6925.334","RA_OF_ASC_NODE":"2.0529","RCS_SIZE":"LARGE","OBJECT_NAME":"STARLINK-1650","ARG_OF_PERICENTER":"66.8831","FILE":"3221278","OBJECT_TYPE":"PAYLOAD","TLE_LINE1":"1 46573U 20070AT  21326.37510012  .00002308  00000-0  17376-3 0  9997","REV_AT_EPOCH":"6333","PERIOD":"95.592"}];
